EUTELSAT 70B            
1 39020U 12069A   21004.56577272 -.00000034  00000-0  00000-0 0  9998
2 39020   0.0516   2.5305 0005134 224.3039 151.7061  1.00270817 29557
YAMAL 402               
1 39022U 12070A   21004.55588497  .00000095  00000-0  00000-0 0  9998
2 39022   0.0292  91.1570 0002937 205.8434  62.3857  1.00271603 29430
SKYNET 5D               
1 39034U 12075A   21004.55544878  .00000109  00000-0  00000-0 0  9997
2 39034   0.0704 359.4188 0004044 281.5694  76.0882  1.00269038 29211
MEXSAT 3                
1 39035U 12075B   21004.61351692 -.00000016  00000-0  00000-0 0  9993
2 39035   0.0185  38.1293 0001422 231.2466 301.1203  1.00270700 29238
TDRS 11                 
1 39070U 13004A   21004.58196855  .00000090  00000-0  00000-0 0  9990
2 39070   3.5485 334.8377 0003655  19.7985 144.8387  1.00269951 26746
AMAZONAS 3              
1 39078U 13006A   21004.53276741 -.00000272  00000-0  00000-0 0  9991
2 39078   0.0147 253.1709 0003750  20.1487 321.8612  1.00269283 24948
AZERSPACE 1             
1 39079U 13006B   21004.56844330  .00000143  00000-0  00000-0 0  9996
2 39079   0.0208  30.6487 0001702 283.8991  40.4742  1.00268719 28856
SBIRS GEO-2 (USA 241)   
1 39120U 13011A   21004.54908056  .00000131  00000-0  00000-0 0  9990
2 39120   1.9607 352.3400 0001859 286.2385  44.0543  1.00272100 28580
EUTELSAT 117 WEST A     
1 39122U 13012A   21004.61272377 -.00000003  00000-0  00000-0 0  9990
2 39122   0.0167 352.5063 0002861 296.9427 278.7529  1.00270661 28499
ANIK G1                 
1 39127U 13014A   21004.61831529 -.00000064  00000-0  00000-0 0  9994
2 39127   0.0124 102.4596 0003118 160.3845 316.8752  1.00271094 28307
CHINASAT 11 (ZX 11)     
1 39157U 13020A   21003.26959569 -.00000280  00000-0  00000-0 0  9999
2 39157   0.0124 316.2274 0002385 353.6265 348.3182  1.00269777 28184
EUTELSAT 7B             
1 39163U 13022A   21004.54637624  .00000058  00000-0  00000-0 0  9997
2 39163   0.0745 339.5959 0004861 349.5656 338.9001  1.00272509 28022
WGS F5 (USA 243)        
1 39168U 13024A   21004.53451213 -.00000274  00000-0  00000-0 0  9992
2 39168   0.0192  28.4076 0000524 323.0426 252.8402  1.00271389 27226
SES-6                   
1 39172U 13026A   21004.52063228 -.00000251  00000-0  00000-0 0  9998
2 39172   0.0250 324.7031 0002233 329.5018 317.0590  1.00270261 27776
IRNSS-1A                
1 39199U 13034A   21003.83775751  .00000085  00000-0  00000+0 0  9993
2 39199  31.2779  93.5968 0022778 187.1868 179.4726  1.00271062 27696
MUOS-2                  
1 39206U 13036A   21004.58135791  .00000074  00000-0  00000-0 0  9990
2 39206   2.5510   3.7976 0051435 184.5685 308.2970  1.00270975 27247
ALPHASAT                
1 39215U 13038A   21004.54995292  .00000144  00000-0  00000-0 0  9996
2 39215   2.5204  18.6554 0002198 268.6393  39.8700  1.00271835 24067
INSAT-3D                
1 39216U 13038B   21004.56138084 -.00000147  00000-0  00000-0 0  9991
2 39216   0.0691  99.6882 0001085 191.1505  97.7158  1.00272061 27158
WGS F6 (USA 244)        
1 39222U 13041A   21004.59983156  .00000099  00000-0  00000-0 0  9998
2 39222   0.0166  10.3343 0000553 261.5997 273.2302  1.00269517 26108
ES'HAIL 1               
1 39233U 13044A   21004.55004015  .00000153  00000-0  00000-0 0  9998
2 39233   0.0488 353.2188 0001689 300.3853  34.2874  1.00272934 26686
GSAT-7                  
1 39234U 13044B   21004.56021578 -.00000067  00000-0  00000-0 0  9998
2 39234   0.0132  40.5488 0008844 234.8100 104.7093  1.00269665 25376
AMOS-4                  
1 39237U 13045A   21004.57132712  .00000017  00000-0  00000-0 0  9990
2 39237   0.0284  74.1138 0002376 252.1158  48.8215  1.00271988 27009
AEHF-3 (USA 246)        
1 39256U 13050A   21004.56713844 -.00000345  00000-0  00000-0 0  9992
2 39256   0.6645  36.3134 0005795 255.9695 127.2740  1.00265706 25721
ASTRA 2E                
1 39285U 13056A   21004.55065081  .00000160  00000-0  00000-0 0  9996
2 39285   0.0712  46.6461 0002609 244.9863  39.4546  1.00272534 26495
SIRIUS FM-6             
1 39360U 13058A   21004.61272385 -.00000007  00000-0  00000-0 0  9997
2 39360   0.0314  62.6060 0000999  66.0185  80.2196  1.00270088 26116
RADUGA-1M 3             
1 39375U 13062A   21003.31507825  .00000166  00000-0  00000-0 0  9999
2 39375   0.9251  95.6902 0006045 311.4048 204.4585  1.00274371 26161
SES-8                   
1 39460U 13071A   21004.56391069 -.00000260  00000-0  00000-0 0  9999
2 39460   0.0473 243.1067 0000987  72.5150  86.7626  1.00273428 24496
INMARSAT 5-F1           
1 39476U 13073A   21004.22618866  .00000038  00000-0  00000-0 0  9990
2 39476   0.0189  39.0162 0000276  37.1778 171.8826  1.00269326 25636
TKSAT-1 (TUPAC KATARI)  
1 39481U 13075A   21004.52753324 -.00000184  00000-0  00000-0 0  9993
2 39481   0.0225 209.3646 0002707  93.8387 263.8496  1.00269473 25647
EXPRESS-AM5             
1 39487U 13077A   21004.57289601 -.00000270  00000-0  00000-0 0  9994
2 39487   0.0142 251.5609 0000496 137.6315  61.4899  1.00271613 26403
GSAT-14                 
1 39498U 14001A   21004.56021578 -.00000068  00000-0  00000-0 0  9995
2 39498   0.0583 270.4302 0004981 356.2017 113.4303  1.00271203 25452
THAICOM 6               
1 39500U 14002A   21004.56021578 -.00000112  00000-0  00000-0 0  9990
2 39500   0.0840 117.1203 0001357 130.3133 137.1526  1.00271046 25504
TDRS 12                 
1 39504U 14004A   21004.39727625 -.00000260  00000-0  00000-0 0  9997
2 39504   4.4107 340.1178 0001133 265.0793 320.8990  1.00264677 24328
ABS-2                   
1 39508U 14006A   21004.62566156 -.00000077  00000-0  00000-0 0  9995
2 39508   0.0193 331.5785 0003487 340.8607  92.1646  1.00271335 25335
ATHENA-FIDUS            
1 39509U 14006B   21004.55248278  .00000164  00000-0  00000-0 0  9996
2 39509   0.0144  50.1187 0000338 300.4821 350.4555  1.00270425 25129
TURKSAT 4A              
1 39522U 14007A   21004.55335514  .00000156  00000-0  00000-0 0  9993
2 39522   0.0480 264.2891 0005029  19.8908  61.4015  1.00273365 25032
EXPRESS-AT1             
1 39612U 14010A   20366.46461645  .00000095  00000-0  00000+0 0  9993
2 39612   0.0504 219.9193 0000304  87.5934  16.1039  1.00272966 25054
EXPRESS-AT2             
1 39613U 14010B   21004.57289601 -.00000272  00000-0  00000-0 0  9995
2 39613   0.0430 225.2267 0000466 233.5543 351.6924  1.00272318 24569
AMAZONAS 4A             
1 39616U 14011A   21004.53023756 -.00000243  00000-0  00000-0 0  9990
2 39616   0.1166  83.1136 0003002 197.9545 300.2029  1.00270458 24748
ASTRA 5B                
1 39617U 14011B   21004.55126146  .00000164  00000-0  00000-0 0  9991
2 39617   0.0337  47.0875 0003794 246.8146  40.4176  1.00273331 24712
IRNSS-1B                
1 39635U 14017A   21003.83801924  .00000108  00000-0  00000+0 0  9998
2 39635  28.9948 273.8994 0017864 183.2193   3.3606  1.00275988 24849
LUCH 5V                 
1 39727U 14023A   21004.56382345 -.00000260  00000-0  00000-0 0  9990
2 39727   0.4615  28.2135 0001687 338.5151  35.3619  1.00273691 24412
KAZSAT-3                
1 39728U 14023B   21004.57339843  .00000070  00000-0  00000-0 0  9995
2 39728   0.0420 200.1953 0000954 201.9679 327.1173  1.00272117 22503
EUTELSAT 3B             
1 39773U 14030A   21004.54550388  .00000029  00000-0  00000-0 0  9993
2 39773   0.0594  22.3033 0004567 195.2266  86.3101  1.00270379 24111
USA 253                 
1 40099U 14043A   20366.31177881  .00000054  00000-0  00000+0 0  9995
2 40099   0.2558 101.9250 0004341 133.9456 345.8219  1.00117570  8063
USA 254                 
1 40100U 14043B   20353.56816994 -.00000003  00000-0  00000+0 0  9991
2 40100   1.0099  95.0251 0000823   0.0505  13.0519  1.00129066  7642
ASIASAT 8               
1 40107U 14046A   21004.50396346 -.00000024  00000-0  00000-0 0  9997
2 40107   0.0431 104.4981 0001563 181.3237 356.0358  1.00271130 82206
ASIASAT 6               
1 40141U 14052A   21004.56888314 -.00000353  00000-0  00000-0 0  9994
2 40141   0.0172  47.1174 0000665 217.2406 164.7334  1.00271451 23100
OPTUS 10                
1 40146U 14054A   21004.62233924 -.00000138  00000-0  00000-0 0  9990
2 40146   0.0237 264.2422 0003127 359.6792 220.5699  1.00271003 23074
MEASAT-3B               
1 40147U 14054B   21004.49141750 -.00000232  00000-0  00000-0 0  9996
2 40147   0.0260 352.3219 0002174 318.9411  61.4415  1.00272863 22950
LUCH (OLYMP)            
1 40258U 14058A   21004.61616512 -.00000017  00000-0  00000+0 0  9990
2 40258   0.0349 113.8371 0000262 199.9823   9.3916  1.00270909 22989
HIMAWARI-8              
1 40267U 14060A   21004.59424497 -.00000266  00000-0  00000-0 0  9996
2 40267   0.0587 188.0482 0001275 102.2019 168.7477  1.00271885 22806
IRNSS-1C                
1 40269U 14061A   21004.56146809 -.00000151  00000-0  00000-0 0  9997
2 40269   2.0650 159.8810 0018859  14.1050 215.5486  1.00272162 22736
INTELSAT 30 (IS-30)     
1 40271U 14062A   21004.59775830 -.00000142  00000-0  00000+0 0  9995
2 40271   0.0167  14.7736 0002051  95.2671 114.5141  1.00273665 22816
ARSAT 1                 
1 40272U 14062B   21004.53067374 -.00000249  00000-0  00000-0 0  9996
2 40272   0.0155  35.1949 0001278 246.5317 301.8575  1.00266827 22662
EXPRESS-AM6             
1 40277U 14064A   21004.55553603  .00000107  00000-0  00000-0 0  9992
2 40277   0.0568 228.9692 0000822 120.6910   7.7119  1.00272273 21620
GSAT-16                 
1 40332U 14078A   21004.55597221  .00000094  00000-0  00000-0 0  9998
2 40332   0.0783 272.9735 0002703 193.4599 253.1643  1.00272136 22166
DIRECTV 14              
1 40333U 14078B   21004.42524161 -.00000115  00000-0  00000-0 0  9993
2 40333   0.0255 120.5932 0000285 218.2834 179.2141  1.00271771 22108
YAMAL 401               
1 40345U 14082A   21004.56295109 -.00000219  00000-0  00000-0 0  9998
2 40345   0.0169  61.2953 0001662 357.8435 337.8739  1.00269639 21964
